#aV2007 11 29  0  0   .00000000      96 DD+AD WGS84 FIT  NGA
## 1455 345600.00000000   900.00000000 54433  .0000000000000
+   31     1  2  3  4  5  6  7  8  9 10 11 12 13 14 15 16 17
+         18 19 20 21 22 23 24 25 26 27 28 30 31 32  0  0  0
+          0  0  0  0  0  0  0  0  0  0  0  0  0  0  0  0  0
+          0  0  0  0  0  0  0  0  0  0  0  0  0  0  0  0  0
+          0  0  0  0  0  0  0  0  0  0  0  0  0  0  0  0  0
++         0  0  0  0  0  0  0  0  0  0  0  0  0  0  0  0  0
++         0  0  0  0  0  0  0  0  0  0  0  0  0  0  0  0  0
++         0  0  0  0  0  0  0  0  0  0  0  0  0  0  0  0  0
++         0  0  0  0  0  0  0  0  0  0  0  0  0  0  0  0  0
++         0  0  0  0  0  0  0  0  0  0  0  0  0  0  0  0  0
%c cc cc ccc ccc cccc cccc cccc cccc ccccc ccccc ccccc ccccc
%c cc cc ccc ccc cccc cccc cccc cccc ccccc ccccc ccccc ccccc
%f  0.0000000  0.000000000  0.00000000000  0.000000000000000
%f  0.0000000  0.000000000  0.00000000000  0.000000000000000
%i    0    0    0    0      0      0      0      0         0
%i    0    0    0    0      0      0      0      0         0
/*      NGA, ST. LOUIS,MO.                                  
/*   EPHEMERIS COMPUTED FROM  3 DAYS OF DATA                
/* CCCCCCCCCCCCCCCCCCCCCCCCCCCCCCCCCCCCCCCCCCCCCCCCCCCCCCCCC
/* CCCCCCCCCCCCCCCCCCCCCCCCCCCCCCCCCCCCCCCCCCCCCCCCCCCCCCCCC
*  2007 11 29  4 15   .00000000                                                 
P  1 -19168.018604 -16585.632926  -7844.279862    169.393296                    
V  1  -4840.135325  -9157.492779  30264.386817       .021322                    
P  2  15306.000121   3482.108290 -21597.481282    154.576190                    
V  2  -8502.826111  25692.386291  -2213.600835       .027854                    
P  3 -21816.755811  -6564.522337  13687.012230    150.958807                    
V  3 -10887.598951 -14290.203135 -23441.922525       .054165                    
P  4   9380.474272  15367.120021 -19490.976155    -30.274372                    
V  4 -10016.888261  22681.503669  13480.807982      -.047776                    
P  5  15007.024611 -15807.373567 -15343.228910    567.889297                    
V  5  19079.741703  -2807.401734  22070.304215       .220928                    
P  6   -921.576290 -19927.520350 -17343.279926    205.025524                    
V  6  16870.753604  15010.235441 -17982.765075      -.105743                    
P  7  -4411.269030 -20893.128109 -15444.598356    -23.020459                    
V  7  16027.333991  12726.751233 -21366.414914       .000430                    
P  8   2178.540140  21398.365793  15164.408688   -131.458631                    
V  8  -9197.189034  17389.639279 -23519.736965      -.014971                    
P  9  14090.763913 -18950.010013  11360.136845     98.788672                    
V  9  -2227.607882  15464.736148  27287.221265       .016709                    
P 10  26239.774124   -549.814512  -5220.862629   -157.787957                    
V 10  -5971.865500   3264.555416 -30752.895147      -.118869                    
P 11 -12047.319429  20900.774358  10622.567221     26.264142                    
V 11  -2220.703391 -14500.737608  26010.803686       .002300                    
P 12  20554.934614 -12029.528927 -11597.241322   -349.814401                    
V 12  15076.093661   -342.319437  26935.827424      -.012008                    
P 13   1874.367964  20346.851063 -17086.175496    224.388746                    
V 13 -14061.639035 -16185.648115 -20917.271124       .025960                    
P 14 -15119.529168 -21713.552038   2960.031350   -316.762635                    
V 14   3688.612849   1659.491946  32012.021356       .026445                    
P 15  16393.560334  -3325.765277  20652.822654    -75.567070                    
V 15  16518.371531  20330.840347  -9874.946658       .043781                    
P 16 -24612.415337  -2708.591697  -9767.413321    126.901458                    
V 16  11885.978861  -4353.224945 -28371.008825       .015857                    
P 17  14709.781345  21857.657844   3954.593461     47.840995                    
V 17  -5268.102611  -2082.745120  31100.377430      -.009630                    
P 18   2704.188565 -15781.867738  21312.254211   -222.620688                    
V 18  26587.269245  -3142.774628  -6091.747445       .023761                    
P 19 -16504.724776   2357.293078  20792.611805      9.446279                    
V 19 -15010.219641 -21472.603312  -9366.128069       .019680                    
P 20 -17984.855676  13779.968175 -13929.822401    125.411783                    
V 20 -17689.760095   1090.581310  24138.701885      -.006708                    
P 21   4498.419692 -25050.062821   6580.661817     75.962046                    
V 21   6579.691328  -6389.743944 -30082.833485      -.005085                    
P 22 -12307.022169 -12753.508804  19955.884299    204.091743                    
V 22  24612.919254  -4640.556309  12273.529066       .008376                    
P 23  -9154.353425  12218.691081 -21776.631930    313.475693                    
V 23 -18132.762914 -20666.463627  -4211.069524       .033411                    
P 24  12833.478448 -22986.162628  -4370.993785     49.736042                    
V 24    334.699457   6345.993288 -30785.004482       .029840                    
P 25  -6336.625655  25879.929055    193.536915    485.282266                    
V 25  -2513.648590   -827.100365 -31690.135340       .044970                    
P 26  17493.721751   1518.926543  19649.305461    109.989508                    
V 26  15385.372846  20600.130839 -14415.595804       .118658                    
P 27  -2109.314311  25530.197508   7260.418834    150.832816                    
V 27  -4740.125204   7369.864934 -30229.053461       .024052                    
P 28   9369.671414  13508.206498  21278.750032    -11.156784                    
V 28 -25723.548461   4631.540883   8185.221235      -.007343                    
P 30   9129.231171 -16241.502385 -19225.813236     54.207548                    
V 30  23534.741141  -3794.591835  14734.420041       .013938                    
P 31 -10456.558615 -12983.313638 -20453.975837       .560564                    
V 31   9632.151955 -24643.966902  10688.993544      -.014537                    
P 32 -20676.943291  -8134.627201  14898.119533    154.612383                    
V 32  17875.999829  -3610.037873  23729.840419       .128244                    
EOF
